IRIDIUM 144             
1 43249U 18030A   25222.62115139 -.00000016  00000+0 -12852-4 0  9995
2 43249  86.3917  60.2310 0002046  91.4159 268.7271 14.34217147385622
IRIDIUM 149             
1 43250U 18030B   25222.62749318 -.00000003  00000+0 -81357-5 0  9992
2 43250  86.3915  60.1988 0002078  91.8036 268.3397 14.34217458385647
IRIDIUM 157             
1 43251U 18030C   25222.64652218 -.00000041  00000+0 -21743-4 0  9991
2 43251  86.3918  60.2371 0002179  84.4385 275.7059 14.34216953385629
IRIDIUM 140             
1 43252U 18030D   25222.80508600  .00000009  00000+0 -38978-5 0  9997
2 43252  86.3917  60.1842 0001936  92.9333 267.2084 14.34217385385701
IRIDIUM 145             
1 43253U 18030E   25222.79240221 -.00000064  00000+0 -29838-4 0  9994
2 43253  86.3917  60.1623 0002154  99.8797 260.2642 14.34216681385635
IRIDIUM 146             
1 43254U 18030F   25222.56406839 -.00000032  00000+0 -18565-4 0  9999
2 43254  86.3915  60.2710 0002102  98.5515 261.5919 14.34216958385615
IRIDIUM 148             
1 43255U 18030G   25222.60212445 -.00000039  00000+0 -20963-4 0  9995
2 43255  86.3917  60.2936 0002223  89.1276 271.0174 14.34216902385654
IRIDIUM 142             
1 43256U 18030H   25222.57041081 -.00000008  00000+0 -98952-5 0  9998
2 43256  86.3914  60.2072 0002227 101.7052 258.4393 14.34217234385617
